SKYKRAFT-1A             
1 55054U 23001AX  26068.71064616  .00008177  00000+0  30069-3 0  9991
2 55054  97.3349 127.6290 0011277 121.5092 238.7251 15.28083228176529
STARLINK-30088          
1 57462U 23107F   26068.09384293  .00006778  00000+0  26191-3 0  9996
2 57462  43.0038 339.6676 0001941 259.6478 100.4155 15.26769614145058
